ONEWEB-0555             
1 56057U 23043M   25235.22319022  .00000105  00000+0  24105-3 0  9993
2 56057  87.9017 288.1619 0002243 109.2721 250.8653 13.16594503119754
ONEWEB-0557             
1 56058U 23043N   25233.71748767 -.00000114  00000+0 -33299-3 0  9994
2 56058  87.9013 288.4821 0003292 104.5101 255.6395 13.16594934119556
ONEWEB-0558             
1 56059U 23043P   25235.27450471  .00004293  00000+0  10360-1 0  9992
2 56059  87.9247 303.4337 0001123 105.3620 254.7638 13.21805562118885
ONEWEB-0559             
1 56060U 23043Q   25235.26346719  .00000073  00000+0  14639-3 0  9999
2 56060  87.9248 303.4281 0001928  86.1099 274.0255 13.21825194118899
ONEWEB-0566             
1 56061U 23043R   25235.25715721 -.00000003  00000+0 -39682-4 0  9993
2 56061  87.9248 303.4272 0001767  89.8176 270.3160 13.21824981118872
ONEWEB-0568             
1 56062U 23043S   25233.65891355  .00000065  00000+0  13709-3 0  9991
2 56062  87.9025 288.4707 0002064 104.6672 255.4688 13.16594295119561
ONEWEB-0574             
1 56063U 23043T   25235.25085060 -.00000026  00000+0 -94436-4 0  9994
2 56063  87.9249 303.4168 0002203  96.9161 263.2224 13.21824337118910
ONEWEB-0575             
1 56064U 23043U   25233.65257650 -.00000021  00000+0 -88417-4 0  9990
2 56064  87.9019 288.4774 0002443 100.7706 259.3700 13.16592664119551
ONEWEB-0576             
1 56065U 23043V   25235.07751641  .00000095  00000+0  21492-3 0  9996
2 56065  87.9027 288.1860 0002101 100.9644 259.1724 13.16595039119731
ONEWEB-0577             
1 56066U 23043W   25235.23583806 -.00000024  00000+0 -97335-4 0  9995
2 56066  87.9026 288.1556 0002679  98.5507 261.5927 13.16595456119783
ONEWEB-0578             
1 56067U 23043X   25235.23822900  .00000095  00000+0  19882-3 0  9993
2 56067  87.9247 303.4295 0001996 104.2364 255.8992 13.21823778118871
ONEWEB-0579             
1 56068U 23043Y   25233.71484232  .00000002  00000+0 -26997-4 0  9992
2 56068  87.9249 303.7190 0002001  90.2025 269.9338 13.21824657118683
ONEWEB-0581             
1 56069U 23043Z   25235.16618484  .00000034  00000+0  54425-4 0  9993
2 56069  87.9010 288.1921 0002431  91.4498 268.6911 13.16593450119741
ONEWEB-0609             
1 56070U 23043AA  25235.26720003 -.00000051  00000+0 -17068-3 0  9999
2 56070  87.9074 318.6487 0001848  99.3335 260.8005 13.15546960117263
ONEWEB-0613             
1 56071U 23043AB  25235.26244563 -.00000018  00000+0 -81083-4 0  9994
2 56071  87.9077 318.6632 0001910  91.2814 268.8536 13.15547288117263
ONEWEB-0630             
1 56072U 23043AC  25235.25769134 -.00000006  00000+0 -50483-4 0  9997
2 56072  87.9066 318.6383 0001787  91.0450 269.0885 13.15548212117258
