[{"OBJECT_NAME":"ONEWEB-0555","OBJECT_ID":"2023-043M","EPOCH":"2025-08-23T05:21:23.635008","MEAN_MOTION":13.16594503,"ECCENTRICITY":0.00022438,"INCLINATION":87.9017,"RA_OF_ASC_NODE":288.1619,"ARG_OF_PERICENTER":109.2721,"MEAN_ANOMALY":250.8653,"EPHEMERIS_TYPE":0,"CLASSIFICATION_TYPE":"U","NORAD_CAT_ID":56057,"ELEMENT_SET_NO":999,"REV_AT_EPOCH":11975,"BSTAR":0.00024105355,"MEAN_MOTION_DOT":1.05e-6,"MEAN_MOTION_DDOT":0},{"OBJECT_NAME":"ONEWEB-0557","OBJECT_ID":"2023-043N","EPOCH":"2025-08-21T17:13:10.934688","MEAN_MOTION":13.16594934,"ECCENTRICITY":0.00032927,"INCLINATION":87.9013,"RA_OF_ASC_NODE":288.4821,"ARG_OF_PERICENTER":104.5101,"MEAN_ANOMALY":255.6395,"EPHEMERIS_TYPE":0,"CLASSIFICATION_TYPE":"U","NORAD_CAT_ID":56058,"ELEMENT_SET_NO":999,"REV_AT_EPOCH":11955,"BSTAR":-0.00033299376,"MEAN_MOTION_DOT":-1.14e-6,"MEAN_MOTION_DDOT":0},{"OBJECT_NAME":"ONEWEB-0558","OBJECT_ID":"2023-043P","EPOCH":"2025-08-23T06:35:17.206944","MEAN_MOTION":13.21805562,"ECCENTRICITY":0.0001123,"INCLINATION":87.9247,"RA_OF_ASC_NODE":303.4337,"ARG_OF_PERICENTER":105.362,"MEAN_ANOMALY":254.7638,"EPHEMERIS_TYPE":0,"CLASSIFICATION_TYPE":"U","NORAD_CAT_ID":56059,"ELEMENT_SET_NO":999,"REV_AT_EPOCH":11888,"BSTAR":0.010360354,"MEAN_MOTION_DOT":4.293e-5,"MEAN_MOTION_DDOT":0},{"OBJECT_NAME":"ONEWEB-0559","OBJECT_ID":"2023-043Q","EPOCH":"2025-08-23T06:19:23.565216","MEAN_MOTION":13.21825194,"ECCENTRICITY":0.00019288,"INCLINATION":87.9248,"RA_OF_ASC_NODE":303.4281,"ARG_OF_PERICENTER":86.1099,"MEAN_ANOMALY":274.0255,"EPHEMERIS_TYPE":0,"CLASSIFICATION_TYPE":"U","NORAD_CAT_ID":56060,"ELEMENT_SET_NO":999,"REV_AT_EPOCH":11889,"BSTAR":0.00014638671,"MEAN_MOTION_DOT":7.3e-7,"MEAN_MOTION_DDOT":0},{"OBJECT_NAME":"ONEWEB-0566","OBJECT_ID":"2023-043R","EPOCH":"2025-08-23T06:10:18.382944","MEAN_MOTION":13.21824981,"ECCENTRICITY":0.00017672,"INCLINATION":87.9248,"RA_OF_ASC_NODE":303.4272,"ARG_OF_PERICENTER":89.8176,"MEAN_ANOMALY":270.316,"EPHEMERIS_TYPE":0,"CLASSIFICATION_TYPE":"U","NORAD_CAT_ID":56061,"ELEMENT_SET_NO":999,"REV_AT_EPOCH":11887,"BSTAR":-3.9682164e-5,"MEAN_MOTION_DOT":-3.0e-8,"MEAN_MOTION_DDOT":0},{"OBJECT_NAME":"ONEWEB-0568","OBJECT_ID":"2023-043S","EPOCH":"2025-08-21T15:48:50.130720","MEAN_MOTION":13.16594295,"ECCENTRICITY":0.00020647,"INCLINATION":87.9025,"RA_OF_ASC_NODE":288.4707,"ARG_OF_PERICENTER":104.6672,"MEAN_ANOMALY":255.4688,"EPHEMERIS_TYPE":0,"CLASSIFICATION_TYPE":"U","NORAD_CAT_ID":56062,"ELEMENT_SET_NO":999,"REV_AT_EPOCH":11956,"BSTAR":0.00013709488,"MEAN_MOTION_DOT":6.5e-7,"MEAN_MOTION_DDOT":0},{"OBJECT_NAME":"ONEWEB-0574","OBJECT_ID":"2023-043T","EPOCH":"2025-08-23T06:01:13.491840","MEAN_MOTION":13.21824337,"ECCENTRICITY":0.00022036,"INCLINATION":87.9249,"RA_OF_ASC_NODE":303.4168,"ARG_OF_PERICENTER":96.9161,"MEAN_ANOMALY":263.2224,"EPHEMERIS_TYPE":0,"CLASSIFICATION_TYPE":"U","NORAD_CAT_ID":56063,"ELEMENT_SET_NO":999,"REV_AT_EPOCH":11891,"BSTAR":-9.4435761e-5,"MEAN_MOTION_DOT":-2.6e-7,"MEAN_MOTION_DDOT":0},{"OBJECT_NAME":"ONEWEB-0575","OBJECT_ID":"2023-043U","EPOCH":"2025-08-21T15:39:42.609600","MEAN_MOTION":13.16592664,"ECCENTRICITY":0.00024438,"INCLINATION":87.9019,"RA_OF_ASC_NODE":288.4774,"ARG_OF_PERICENTER":100.7706,"MEAN_ANOMALY":259.37,"EPHEMERIS_TYPE":0,"CLASSIFICATION_TYPE":"U","NORAD_CAT_ID":56064,"ELEMENT_SET_NO":999,"REV_AT_EPOCH":11955,"BSTAR":-8.8416715e-5,"MEAN_MOTION_DOT":-2.1e-7,"MEAN_MOTION_DDOT":0},{"OBJECT_NAME":"ONEWEB-0576","OBJECT_ID":"2023-043V","EPOCH":"2025-08-23T01:51:37.417824","MEAN_MOTION":13.16595039,"ECCENTRICITY":0.00021015,"INCLINATION":87.9027,"RA_OF_ASC_NODE":288.186,"ARG_OF_PERICENTER":100.9644,"MEAN_ANOMALY":259.1724,"EPHEMERIS_TYPE":0,"CLASSIFICATION_TYPE":"U","NORAD_CAT_ID":56065,"ELEMENT_SET_NO":999,"REV_AT_EPOCH":11973,"BSTAR":0.00021491713,"MEAN_MOTION_DOT":9.5e-7,"MEAN_MOTION_DDOT":0},{"OBJECT_NAME":"ONEWEB-0577","OBJECT_ID":"2023-043W","EPOCH":"2025-08-23T05:39:36.408384","MEAN_MOTION":13.16595456,"ECCENTRICITY":0.00026796,"INCLINATION":87.9026,"RA_OF_ASC_NODE":288.1556,"ARG_OF_PERICENTER":98.5507,"MEAN_ANOMALY":261.5927,"EPHEMERIS_TYPE":0,"CLASSIFICATION_TYPE":"U","NORAD_CAT_ID":56066,"ELEMENT_SET_NO":999,"REV_AT_EPOCH":11978,"BSTAR":-9.7335078e-5,"MEAN_MOTION_DOT":-2.4e-7,"MEAN_MOTION_DDOT":0},{"OBJECT_NAME":"ONEWEB-0578","OBJECT_ID":"2023-043X","EPOCH":"2025-08-23T05:43:02.985600","MEAN_MOTION":13.21823778,"ECCENTRICITY":0.00019966,"INCLINATION":87.9247,"RA_OF_ASC_NODE":303.4295,"ARG_OF_PERICENTER":104.2364,"MEAN_ANOMALY":255.8992,"EPHEMERIS_TYPE":0,"CLASSIFICATION_TYPE":"U","NORAD_CAT_ID":56067,"ELEMENT_SET_NO":999,"REV_AT_EPOCH":11887,"BSTAR":0.00019882413,"MEAN_MOTION_DOT":9.5e-7,"MEAN_MOTION_DDOT":0},{"OBJECT_NAME":"ONEWEB-0579","OBJECT_ID":"2023-043Y","EPOCH":"2025-08-21T17:09:22.376448","MEAN_MOTION":13.21824657,"ECCENTRICITY":0.00020014,"INCLINATION":87.9249,"RA_OF_ASC_NODE":303.719,"ARG_OF_PERICENTER":90.2025,"MEAN_ANOMALY":269.9338,"EPHEMERIS_TYPE":0,"CLASSIFICATION_TYPE":"U","NORAD_CAT_ID":56068,"ELEMENT_SET_NO":999,"REV_AT_EPOCH":11868,"BSTAR":-2.6996634e-5,"MEAN_MOTION_DOT":2.0e-8,"MEAN_MOTION_DDOT":0},{"OBJECT_NAME":"ONEWEB-0581","OBJECT_ID":"2023-043Z","EPOCH":"2025-08-23T03:59:18.370176","MEAN_MOTION":13.1659345,"ECCENTRICITY":0.00024311,"INCLINATION":87.901,"RA_OF_ASC_NODE":288.1921,"ARG_OF_PERICENTER":91.4498,"MEAN_ANOMALY":268.6911,"EPHEMERIS_TYPE":0,"CLASSIFICATION_TYPE":"U","NORAD_CAT_ID":56069,"ELEMENT_SET_NO":999,"REV_AT_EPOCH":11974,"BSTAR":5.4424843e-5,"MEAN_MOTION_DOT":3.4e-7,"MEAN_MOTION_DDOT":0},{"OBJECT_NAME":"ONEWEB-0609","OBJECT_ID":"2023-043AA","EPOCH":"2025-08-23T06:24:46.082592","MEAN_MOTION":13.1554696,"ECCENTRICITY":0.0001848,"INCLINATION":87.9074,"RA_OF_ASC_NODE":318.6487,"ARG_OF_PERICENTER":99.3335,"MEAN_ANOMALY":260.8005,"EPHEMERIS_TYPE":0,"CLASSIFICATION_TYPE":"U","NORAD_CAT_ID":56070,"ELEMENT_SET_NO":999,"REV_AT_EPOCH":11726,"BSTAR":-0.00017067622,"MEAN_MOTION_DOT":-5.1e-7,"MEAN_MOTION_DDOT":0},{"OBJECT_NAME":"ONEWEB-0613","OBJECT_ID":"2023-043AB","EPOCH":"2025-08-23T06:17:55.302432","MEAN_MOTION":13.15547288,"ECCENTRICITY":0.000191,"INCLINATION":87.9077,"RA_OF_ASC_NODE":318.6632,"ARG_OF_PERICENTER":91.2814,"MEAN_ANOMALY":268.8536,"EPHEMERIS_TYPE":0,"CLASSIFICATION_TYPE":"U","NORAD_CAT_ID":56071,"ELEMENT_SET_NO":999,"REV_AT_EPOCH":11726,"BSTAR":-8.1083159e-5,"MEAN_MOTION_DOT":-1.8e-7,"MEAN_MOTION_DDOT":0},{"OBJECT_NAME":"ONEWEB-0630","OBJECT_ID":"2023-043AC","EPOCH":"2025-08-23T06:11:04.531776","MEAN_MOTION":13.15548212,"ECCENTRICITY":0.00017874,"INCLINATION":87.9066,"RA_OF_ASC_NODE":318.6383,"ARG_OF_PERICENTER":91.045,"MEAN_ANOMALY":269.0885,"EPHEMERIS_TYPE":0,"CLASSIFICATION_TYPE":"U","NORAD_CAT_ID":56072,"ELEMENT_SET_NO":999,"REV_AT_EPOCH":11725,"BSTAR":-5.0483027e-5,"MEAN_MOTION_DOT":-6.0e-8,"MEAN_MOTION_DDOT":0}]
